OBJECT_NAME,OBJECT_ID,EPOCH,MEAN_MOTION,ECCENTRICITY,INCLINATION,RA_OF_ASC_NODE,ARG_OF_PERICENTER,MEAN_ANOMALY,EPHEMERIS_TYPE,CLASSIFICATION_TYPE,NORAD_CAT_ID,ELEMENT_SET_NO,REV_AT_EPOCH,BSTAR,MEAN_MOTION_DOT,MEAN_MOTION_DDOT
CUBEBUG-2 (LO-74),2013-066AA,2026-06-20T08:17:28.963968,14.93786433,.0058172,97.8908,120.3368,18.8863,341.4496,0,U,39440,999,67746,.38759E-3,.4187E-4,0
FUNCUBE-1 (AO-73),2013-066AE,2026-06-20T10:29:40.114176,15.09520967,.0035961,97.8276,142.9507,189.5491,170.5058,0,U,39444,999,68015,.29523E-3,.4737E-4,0
UWE-3,2013-066AG,2026-06-20T10:10:30.340128,14.97047513,.00472,97.8702,127.5192,310.2944,49.4156,0,U,39446,999,67806,.32554E-3,.3773E-4,0
UNISAT-6,2014-033C,2026-06-20T08:39:09.950112,14.88258832,.0046103,97.7886,324.0163,59.1479,301.4261,0,U,40012,999,64663,.24761E-3,.2275E-4,0
DUCHIFAT-1,2014-033M,2026-06-20T09:51:28.965024,15.65166086,.0002464,98.0451,231.0257,112.8705,247.2812,0,U,40021,999,65625,.98362E-3,.9796E-3,0
QB50P1,2014-033R,2026-06-20T07:31:29.445600,15.18299167,.0008083,98.0964,182.6784,203.9686,156.1171,0,U,40025,999,65350,.34929E-3,.7093E-4,0
LILACSAT-2,2015-049K,2026-06-21T12:41:44.445696,15.51567178,.0005819,97.4642,209.5359,224.7343,135.3440,0,U,40908,999,59642,.25303E-3,.14906E-3,0
FOX-1A (AO-85),2015-058D,2026-06-20T10:30:41.563584,14.90981421,.0130605,64.7745,268.8811,55.3496,305.9846,0,U,40967,999,11405,.15762E-3,.1657E-4,0
CAS-2T & KS-1Q,2016-066G,2026-06-20T05:15:06.626016,14.44702954,.034287,98.3821,246.9206,120.3110,243.2471,0,U,41847,999,50523,.18865E-3,.1296E-4,0
RADFXSAT (FOX-1B),2017-073E,2026-06-20T04:25:47.254944,15.12753215,.0149318,97.4696,38.3374,318.7924,40.2110,0,U,43017,999,46584,.29340039E-3,.6691E-4,0
DIWATA-2B,2018-084H,2026-06-21T12:06:33.846624,15.00468688,.0012857,98.1194,8.9000,156.4767,203.7046,0,U,43678,999,41686,.15345E-3,.1869E-4,0
ES'HAIL 2,2018-090A,2026-06-20T07:49:11.541792,1.00272471,.0001829,0.0162,58.1464,66.6264,286.8419,0,U,43700,999,2770,0,.139E-5,0
FOX-1CLIFF (AO-95),2018-099N,2026-06-20T10:05:12.494400,15.26768122,.0007644,97.4379,231.6550,345.3894,14.7122,0,U,43770,999,41371,.34569E-3,.9032E-4,0
ITASAT,2018-099AE,2026-06-20T02:49:24.167712,15.19087166,.0011788,97.4025,222.5709,349.8108,10.2885,0,U,43786,999,41335,.24986772E-3,.5183E-4,0
JY1SAT (JO-97),2018-099AX,2026-06-20T10:09:25.146144,15.33738605,.0004531,97.4124,234.2689,246.7819,113.2947,0,U,43803,999,41412,.43536E-3,.14139E-3,0
UWE-4,2018-111E,2026-06-19T17:44:17.410560,15.46259003,.00050679,97.5852,99.2477,330.7950,29.3015,0,U,43880,999,41117,.56934495E-3,.28E-3,0
TIANYAN 01,2019-093C,2026-06-21T11:41:49.365888,14.86525068,.0015031,97.7524,244.6147,74.5409,285.7466,0,U,44881,999,35205,.1E-3,.833E-5,0
RS-44 & BREEZE-KM R/B,2019-096E,2026-06-20T10:41:02.995584,12.79748893,.0218289,82.5221,337.5395,136.5763,225.2766,0,U,44909,999,30276,.45367E-4,.24E-6,0
SALSAT,2020-068K,2026-06-19T22:59:40.174368,15.29832652,.00078926,97.8854,174.1914,296.5001,63.5428,0,U,46495,999,31578,.22355472E-3,.6379E-4,0
XW-3 (CAS-9),2021-131B,2026-06-21T11:56:18.333888,14.41360770,.0005385,98.4980,264.8640,87.0874,273.0931,0,U,50466,999,23573,.12318E-3,.355E-5,0
GREENCUBE (IO-117),2022-080E,2026-06-20T07:07:43.074912,6.42583222,.0008923,70.1444,297.1634,288.8810,71.0882,0,U,53109,999,9226,0,-.3E-7,0
UMKA 1 (RS40S),2023-091G,2026-06-20T09:12:31.031136,15.20848788,.0014343,97.5046,230.0688,107.7929,252.4872,0,U,57172,999,16449,.23636E-3,.5161E-4,0
CUBESX-HSE 3 (RS42S),2023-091N,2026-06-20T10:35:24.463104,15.31283284,.0011948,97.5086,237.0698,84.7993,275.4611,0,U,57178,999,16492,.36631E-3,.11017E-3,0
MONITOR-3 (RS58S),2023-091Q,2026-06-20T09:46:43.245408,15.27895465,.0013041,97.5078,234.8773,90.9319,269.3415,0,U,57180,999,16478,.32073E-3,.868E-4,0
MONITOR-4 (RS57S),2023-091S,2026-06-20T10:50:36.423744,15.27982067,.0013052,97.5073,234.8934,91.1607,269.1128,0,U,57182,999,16479,.32683E-3,.887E-4,0
MONITOR-2 (RS39S),2023-091U,2026-06-20T09:48:54.239040,15.18935296,.0012781,97.5068,229.6713,101.4051,258.8619,0,U,57184,999,16444,.1804E-3,.3706E-4,0
SVYATOBOR 1 (RS60S),2023-091X,2026-06-20T09:39:07.424064,15.26660865,.0010816,97.5084,235.2372,84.9279,275.3193,0,U,57187,999,16480,.29726E-3,.7736E-4,0
VIZARD-METEO (RS38S),2023-091Z,2026-06-20T11:16:41.748960,15.36113853,.0008064,97.5086,241.0213,68.0251,292.1849,0,U,57189,999,16519,.41535E-3,.14554E-3,0
POLYTECH-UNIVERSE 3 (RS46S),2023-091AB,2026-06-20T10:27:27.600768,15.19138885,.001701,97.5043,229.2023,116.4826,243.8155,0,U,57191,999,16444,.21198E-3,.44E-4,0
UTMN 2 (RS27S),2023-091AP,2026-06-20T10:58:10.524000,15.32118609,.0009091,97.5082,238.7236,74.0952,286.1291,0,U,57203,999,16504,.35586E-3,.10973E-3,0
