CUBEBUG-2 (LO-74)
1 39440U 13066AA  26171.34547412  .00004187  00000-0  38759-3 0  9998
2 39440  97.8908 120.3368 0058172  18.8863 341.4496 14.93786433677462
FUNCUBE-1 (AO-73)
1 39444U 13066AE  26171.43726984  .00004737  00000-0  29523-3 0  9995
2 39444  97.8276 142.9507 0035961 189.5491 170.5058 15.09520967680154
UWE-3
1 39446U 13066AG  26171.42396227  .00003773  00000-0  32554-3 0  9996
2 39446  97.8702 127.5192 0047200 310.2944  49.4156 14.97047513678061
UNISAT-6
1 40012U 14033C   26171.36053183  .00002275  00000-0  24761-3 0  9993
2 40012  97.7886 324.0163 0046103  59.1479 301.4261 14.88258832646633
DUCHIFAT-1
1 40021U 14033M   26171.41075191  .00097960  00000-0  98362-3 0  9995
2 40021  98.0451 231.0257 0002464 112.8705 247.2812 15.65166086656250
FUNCUBE-3 (EO-79)
1 40025U 14033R   26171.31353525  .00007093  00000-0  34929-3 0  9995
2 40025  98.0964 182.6784 0008083 203.9686 156.1171 15.18299167653508
LILACSAT-2
1 40908U 15049K   26172.52898664  .00014906  00000-0  25303-3 0  9992
2 40908  97.4642 209.5359 0005819 224.7343 135.3440 15.51567178596428
CAS-2T & KS-1Q
1 41847U 16066G   26171.21882669  .00001296  00000-0  18865-3 0  9991
2 41847  98.3821 246.9206 0342870 120.3110 243.2471 14.44702954505236
FOX-1B (AO-91)
1 43017U 17073E   26171.18457471  .00006691  00000-0  29340-3 0  9990
2 43017  97.4696  38.3374 0149318 318.7924  40.2110 15.12753215465843
FOX-1A (AO-85)
1 40967U 15058D   26171.43798106  .00001657  00000-0  15762-3 0  9993
2 40967  64.7745 268.8811 0130605  55.3496 305.9846 14.90981421114057
DIWATA-2B (PO-101)
1 43678U 18084H   26172.50455841  .00001869  00000-0  15345-3 0  9994
2 43678  98.1194   8.9000 0012857 156.4767 203.7046 15.00468688416861
ESHAIL-2
1 43700U 18090A   26171.32582803  .00000139  00000-0  00000+0 0  9992
2 43700   0.0162  58.1464 0001829  66.6264 286.8419  1.00272471 27701
ITASAT-1
1 43786U 18099AE  26171.11764083  .00005183  00000-0  24987-3 0  9992
2 43786  97.4025 222.5709 0011788 349.8108  10.2885 15.19087166413356
FOX-1CLIFF (AO-95)
1 43770U 18099N   26171.42028350  .00009032  00000-0  34569-3 0  9993
2 43770  97.4379 231.6550 0007644 345.3894  14.7122 15.26768122413714
JY1SAT (JO-97)
1 43803U 18099AX  26171.42320771  .00014139  00000-0  43536-3 0  9990
2 43803  97.4124 234.2689 0004531 246.7819 113.2947 15.33738605414121
UWE-4
1 43880U 18111E   26170.73909040  .00028000  00000-0  56934-3 0  9993
2 43880  97.5852  99.2477 0005068 330.7950  29.3015 15.46259003411174
CAS-6 (TO-108)
1 44881U 19093C   26172.48737692  .00000833  00000-0  10000-3 0  9999
2 44881  97.7524 244.6147 0015031  74.5409 285.7466 14.86525068352056
DOSAAF-85 (RS-44)
1 44909U 19096E   26171.44517356  .00000024  00000-0  45367-4 0  9998
2 44909  82.5221 337.5395 0218289 136.5763 225.2766 12.79748893302760
SALSAT (TUBSAT 22)
1 46495U 20068K   26170.95810387  .00006379  00000-0  22355-3 0  9996
2 46495  97.8854 174.1914 0007893 296.5001  63.5428 15.29832652315783
CAMSAT XW-3 (CAS-9)
1 50466U 21131B   26172.49743442  .00000355  00000-0  12318-3 0  9995
2 50466  98.4980 264.8640 0005385  87.0874 273.0931 14.41360770235734
ROBUSTA 1F (MTCUBE-2)
1 53109U 22080E   26171.29702633 -.00000003  00000-0  00000+0 0  9992
2 53109  70.1444 297.1634 0008923 288.8810  71.0882  6.42583222 92268
UMKA-1 (RS40S)
1 57172U 23091G   26171.38369249  .00005161  00000-0  23636-3 0  9994
2 57172  97.5046 230.0688 0014343 107.7929 252.4872 15.20848788164497
CUBESX-HSE-3 (RS42S)
1 57178U 23091N   26171.44125536  .00011017  00000-0  36631-3 0  9992
2 57178  97.5086 237.0698 0011948  84.7993 275.4611 15.31283284164928
MONITOR-3 (RS58S)
1 57180U 23091Q   26171.40744497  .00008680  00000-0  32073-3 0  9992
2 57180  97.5078 234.8773 0013041  90.9319 269.3415 15.27895465164781
MONITOR-4 (RS57S)
1 57182U 23091S   26171.45181046  .00008870  00000-0  32683-3 0  9992
2 57182  97.5073 234.8934 0013052  91.1607 269.1128 15.27982067164797
MONITOR-2 (RS39S)
1 57184U 23091U   26171.40896110  .00003706  00000-0  18040-3 0  9998
2 57184  97.5068 229.6713 0012781 101.4051 258.8619 15.18935296164440
SVYATOBOR-1 (RS60S)
1 57187U 23091X   26171.40216926  .00007736  00000-0  29726-3 0  9992
2 57187  97.5084 235.2372 0010816  84.9279 275.3193 15.26660865164806
VIZARD-METEO (RS38S)
1 57189U 23091Z   26171.46992765  .00014554  00000-0  41535-3 0  9990
2 57189  97.5086 241.0213 0008064  68.0251 292.1849 15.36113853165193
UTMN-2 (RS27S)
1 57203U 23091AP  26171.45706625  .00010973  00000-0  35586-3 0  9994
2 57203  97.5082 238.7236 0009091  74.0952 286.1291 15.32118609165048
POLYTECH UNIVERSE-3 (RS46S)
1 57191U 23091AB  26171.43573612  .00004400  00000-0  21198-3 0  9998
2 57191  97.5043 229.2023 0017010 116.4826 243.8155 15.19138885164446
